ORBCOMM FM33            
1 25983U 99065D   26003.41906304  .00002674  00000+0  87501-3 0  9996
2 25983  45.0271 126.5977 0007136 343.9295  16.1327 14.40601872364935
ORBCOMM FM36            
1 25984U 99065E   26003.01637321  .00002262  00000+0  77535-3 0  9992
2 25984  45.0368 223.4697 0002240 226.5698 133.4965 14.38778843363191
ORBCOMM FM35            
1 25985U 99065F   26003.00454452  .00001895  00000+0  67176-3 0  9995
2 25985  45.0382 230.1916 0003949 327.9444  32.1164 14.37680923363533
ORBCOMM FM34            
1 25986U 99065G   26003.04141333  .00001478  00000+0  53486-3 0  9997
2 25986  45.0377 230.4925 0003458 277.5447  82.5008 14.37621691363655
ORBCOMM FM38            
1 33060U 08031A   25351.76850136  .00001404  00000+0  20080-3 0  9997
2 33060  48.4372 159.8035 0004435 120.0486 240.0870 14.82282580941971
ORBCOMM FM41            
1 33061U 08031B   26003.42208462  .00003725  00000+0  49175-3 0  9999
2 33061  48.4431  88.8043 0003870 180.8508 232.7058 14.81938578943926
ORBCOMM FM29            
1 33062U 08031C   26003.51717926  .00004390  00000+0  57254-3 0  9996
2 33062  48.4383  95.8858 0005558 176.4953 197.1310 14.82094508943859
ORBCOMM FM39            
1 33063U 08031D   26003.34390848  .00004097  00000+0  55641-3 0  9990
2 33063  48.4389 123.2628 0006214 143.1166 217.0178 14.80513781943440
